{"type": "FeatureCollection", "features": [ {"type": "Feature", "properties": {"norad_id": 34790, "name": "COSMOS 2251 DEB", "group": "cosmos-2251-debris", "lat": -74.0258308381407, "lon": 140.3892650804753, "alt_km": 747.2832757972501, "timestamp": "2025-12-21T16:47:55.134103+00:00", "meta": {"OBJECT_NAME": "COSMOS 2251 DEB", "OBJECT_ID": "1993-036AAT", "EPOCH": "2025-12-20T03:10:44.601024", "MEAN_MOTION": 14.24656104, "ECCENTRICITY": 0.01005224, "INCLINATION": 74.0538, "RA_OF_ASC_NODE": 230.3962, "ARG_OF_PERICENTER": 290.5432, "MEAN_ANOMALY": 224.5062, "EPHEMERIS_TYPE": 0, "CLASSIFICATION_TYPE": "U", "NORAD_CAT_ID": 34790, "ELEMENT_SET_NO": 999, "REV_AT_EPOCH": 86678, "BSTAR": 0.00041671452, "MEAN_MOTION_DOT": 9.95e-06, "MEAN_MOTION_DDOT": 0}, "tle": {"line1": "1 34790U 93036AAT 25354.13246066  .00000995  00000+0  41671-3 0  9995", "line2": "2 34790  74.0538 230.3962 0100522 290.5432 224.5062 14.24656104866781"}}, "geometry": {"type": "Point", "coordinates": [140.3892650804753, -74.0258308381407]}}, {"type": "Feature", "properties": {"norad_id": 34792, "name": "COSMOS 2251 DEB", "group": "cosmos-2251-debris", "lat": 29.300631662406534, "lon": -36.5531791543284, "alt_km": 705.4486920452046, "timestamp": "2025-12-21T16:47:55.134113+00:00", "meta": {"OBJECT_NAME": "COSMOS 2251 DEB", "OBJECT_ID": "1993-036AAV", "EPOCH": "2025-12-21T09:36:51.598944", "MEAN_MOTION": 14.560204, "ECCENTRICITY": 0.0012388, "INCLINATION": 74.0173, "RA_OF_ASC_NODE": 153.2705, "ARG_OF_PERICENTER": 247.6875, "MEAN_ANOMALY": 133.3189, "EPHEMERIS_TYPE": 0, "CLASSIFICATION_TYPE": "U", "NORAD_CAT_ID": 34792, "ELEMENT_SET_NO": 999, "REV_AT_EPOCH": 87776, "BSTAR": 0.00079124, "MEAN_MOTION_DOT": 3.459e-05, "MEAN_MOTION_DDOT": 0}, "tle": {"line1": "1 34792U 93036AAV 25355.40059721  .00003459  00000+0  79124-3 0  9990", "line2": "2 34792  74.0173 153.2705 0012388 247.6875 133.3189 14.56020400877768"}}, "geometry": {"type": "Point", "coordinates": [-36.5531791543284, 29.300631662406534]}}, {"type": "Feature", "properties": {"norad_id": 34793, "name": "COSMOS 2251 DEB", "group": "cosmos-2251-debris", "lat": 73.99125879036717, "lon": -36.81078064755545, "alt_km": 739.6088322244959, "timestamp": "2025-12-21T16:47:55.134124+00:00", "meta": {"OBJECT_NAME": "COSMOS 2251 DEB", "OBJECT_ID": "1993-036AAW", "EPOCH": "2025-12-21T11:42:02.966112", "MEAN_MOTION": 14.38657497, "ECCENTRICITY": 0.0050672, "INCLINATION": 74.002, "RA_OF_ASC_NODE": 234.2059, "ARG_OF_PERICENTER": 26.0787, "MEAN_ANOMALY": 43.5663, "EPHEMERIS_TYPE": 0, "CLASSIFICATION_TYPE": "U", "NORAD_CAT_ID": 34793, "ELEMENT_SET_NO": 999, "REV_AT_EPOCH": 87456, "BSTAR": 0.00018693, "MEAN_MOTION_DOT": 5.55e-06, "MEAN_MOTION_DDOT": 0}, "tle": {"line1": "1 34793U 93036AAW 25355.48753433  .00000555  00000+0  18693-3 0  9998", "line2": "2 34793  74.0020 234.2059 0050672  26.0787  43.5663 14.38657497874567"}}, "geometry": {"type": "Point", "coordinates": [-36.81078064755545, 73.99125879036717]}}, {"type": "Feature", "properties": {"norad_id": 34796, "name": "COSMOS 2251 DEB", "group": "cosmos-2251-debris", "lat": 31.53277891047362, "lon": 9.424300955667384, "alt_km": 790.8894564048187, "timestamp": "2025-12-21T16:47:55.134134+00:00", "meta": {"OBJECT_NAME": "COSMOS 2251 DEB", "OBJECT_ID": "1993-036AAZ", "EPOCH": "2025-12-21T06:43:38.254368", "MEAN_MOTION": 14.48726221, "ECCENTRICITY": 0.010028, "INCLINATION": 74.0288, "RA_OF_ASC_NODE": 200.3317, "ARG_OF_PERICENTER": 300.5709, "MEAN_ANOMALY": 179.2041, "EPHEMERIS_TYPE": 0, "CLASSIFICATION_TYPE": "U", "NORAD_CAT_ID": 34796, "ELEMENT_SET_NO": 999, "REV_AT_EPOCH": 88151, "BSTAR": 0.00042485, "MEAN_MOTION_DOT": 1.677e-05, "MEAN_MOTION_DDOT": 0}, "tle": {"line1": "1 34796U 93036AAZ 25355.28030387  .00001677  00000+0  42485-3 0  9997", "line2": "2 34796  74.0288 200.3317 0100280 300.5709 179.2041 14.48726221881515"}}, "geometry": {"type": "Point", "coordinates": [9.424300955667384, 31.53277891047362]}}, {"type": "Feature", "properties": {"norad_id": 34797, "name": "COSMOS 2251 DEB", "group": "cosmos-2251-debris", "lat": 72.23978250464879, "lon": 147.07201898814833, "alt_km": 760.9556163735206, "timestamp": "2025-12-21T16:47:55.134144+00:00", "meta": {"OBJECT_NAME": "COSMOS 2251 DEB", "OBJECT_ID": "1993-036ABA", "EPOCH": "2025-12-18T13:32:08.695392", "MEAN_MOTION": 14.42903821, "ECCENTRICITY": 0.00713736, "INCLINATION": 73.9783, "RA_OF_ASC_NODE": 89.1324, "ARG_OF_PERICENTER": 201.7042, "MEAN_ANOMALY": 158.1087, "EPHEMERIS_TYPE": 0, "CLASSIFICATION_TYPE": "U", "NORAD_CAT_ID": 34797, "ELEMENT_SET_NO": 999, "REV_AT_EPOCH": 87499, "BSTAR": 0.0016985088, "MEAN_MOTION_DOT": 5.83e-05, "MEAN_MOTION_DDOT": 0}, "tle": {"line1": "1 34797U 93036ABA 25352.56398953  .00005830  00000+0  16985-2 0  9992", "line2": "2 34797  73.9783  89.1324 0071373 201.7042 158.1087 14.42903821874994"}}, "geometry": {"type": "Point", "coordinates": [147.07201898814833, 72.23978250464879]}}, {"type": "Feature", "properties": {"norad_id": 34814, "name": "COSMOS 2251 DEB", "group": "cosmos-2251-debris", "lat": -51.368008080996375, "lon": 150.0119433254289, "alt_km": 743.7011897687325, "timestamp": "2025-12-21T16:47:55.134154+00:00", "meta": {"OBJECT_NAME": "COSMOS 2251 DEB", "OBJECT_ID": "1993-036ABD", "EPOCH": "2025-12-20T15:30:26.921088", "MEAN_MOTION": 14.36924529, "ECCENTRICITY": 0.0055669, "INCLINATION": 73.8958, "RA_OF_ASC_NODE": 310.7738, "ARG_OF_PERICENTER": 198.7366, "MEAN_ANOMALY": 346.1434, "EPHEMERIS_TYPE": 0, "CLASSIFICATION_TYPE": "U", "NORAD_CAT_ID": 34814, "ELEMENT_SET_NO": 999, "REV_AT_EPOCH": 87446, "BSTAR": 0.00047694, "MEAN_MOTION_DOT": 1.41e-05, "MEAN_MOTION_DDOT": 0}, "tle": {"line1": "1 34814U 93036ABD 25354.64614492  .00001410  00000+0  47694-3 0  9994", "line2": "2 34814  73.8958 310.7738 0055669 198.7366 346.1434 14.36924529874461"}}, "geometry": {"type": "Point", "coordinates": [150.0119433254289, -51.368008080996375]}}, {"type": "Feature", "properties": {"norad_id": 34815, "name": "COSMOS 2251 DEB", "group": "cosmos-2251-debris", "lat": -68.31746424702342, "lon": 178.18544605623893, "alt_km": 600.2861165431332, "timestamp": "2025-12-21T16:47:55.134164+00:00", "meta": {"OBJECT_NAME": "COSMOS 2251 DEB", "OBJECT_ID": "1993-036ABE", "EPOCH": "2025-12-21T09:00:52.423200", "MEAN_MOTION": 14.78402256, "ECCENTRICITY": 0.0058814, "INCLINATION": 74.044, "RA_OF_ASC_NODE": 224.843, "ARG_OF_PERICENTER": 292.1166, "MEAN_ANOMALY": 67.3772, "EPHEMERIS_TYPE": 0, "CLASSIFICATION_TYPE": "U", "NORAD_CAT_ID": 34815, "ELEMENT_SET_NO": 999, "REV_AT_EPOCH": 88755, "BSTAR": 0.00054059, "MEAN_MOTION_DOT": 4.019e-05, "MEAN_MOTION_DDOT": 0}, "tle": {"line1": "1 34815U 93036ABE 25355.37560675  .00004019  00000+0  54059-3 0  9990", "line2": "2 34815  74.0440 224.8430 0058814 292.1166  67.3772 14.78402256887552"}}, "geometry": {"type": "Point", "coordinates": [178.18544605623893, -68.31746424702342]}}, {"type": "Feature", "properties": {"norad_id": 34816, "name": "COSMOS 2251 DEB", "group": "cosmos-2251-debris", "lat": -27.62236157638424, "lon": 119.80266104364122, "alt_km": 1254.2351232319552, "timestamp": "2025-12-21T16:47:55.134174+00:00", "meta": {"OBJECT_NAME": "COSMOS 2251 DEB", "OBJECT_ID": "1993-036ABF", "EPOCH": "2025-12-19T19:45:52.299072", "MEAN_MOTION": 13.58341455, "ECCENTRICITY": 0.03732066, "INCLINATION": 73.8867, "RA_OF_ASC_NODE": 131.5634, "ARG_OF_PERICENTER": 194.8145, "MEAN_ANOMALY": 321.2377, "EPHEMERIS_TYPE": 0, "CLASSIFICATION_TYPE": "U", "NORAD_CAT_ID": 34816, "ELEMENT_SET_NO": 999, "REV_AT_EPOCH": 82879, "BSTAR": 0.00094697694, "MEAN_MOTION_DOT": 1.062e-05, "MEAN_MOTION_DDOT": 0}, "tle": {"line1": "1 34816U 93036ABF 25353.82352198  .00001062  00000+0  94698-3 0  9996", "line2": "2 34816  73.8867 131.5634 0373206 194.8145 321.2377 13.58341455828797"}}, "geometry": {"type": "Point", "coordinates": [119.80266104364122, -27.62236157638424]}}, {"type": "Feature", "properties": {"norad_id": 34818, "name": "COSMOS 2251 DEB", "group": "cosmos-2251-debris", "lat": -50.18491144637776, "lon": -99.61872800012078, "alt_km": 763.0745363558653, "timestamp": "2025-12-21T16:47:55.134184+00:00", "meta": {"OBJECT_NAME": "COSMOS 2251 DEB", "OBJECT_ID": "1993-036ABH", "EPOCH": "2025-12-21T06:03:22.029120", "MEAN_MOTION": 14.36976578, "ECCENTRICITY": 0.0024585, "INCLINATION": 74.0362, "RA_OF_ASC_NODE": 281.2869, "ARG_OF_PERICENTER": 355.1217, "MEAN_ANOMALY": 157.5455, "EPHEMERIS_TYPE": 0, "CLASSIFICATION_TYPE": "U", "NORAD_CAT_ID": 34818, "ELEMENT_SET_NO": 999, "REV_AT_EPOCH": 87492, "BSTAR": 0.00016074, "MEAN_MOTION_DOT": 4.52e-06, "MEAN_MOTION_DDOT": 0}, "tle": {"line1": "1 34818U 93036ABH 25355.25233830  .00000452  00000+0  16074-3 0  9992", "line2": "2 34818  74.0362 281.2869 0024585 355.1217 157.5455 14.36976578874920"}}, "geometry": {"type": "Point", "coordinates": [-99.61872800012078, -50.18491144637776]}}, {"type": "Feature", "properties": {"norad_id": 34819, "name": "COSMOS 2251 DEB", "group": "cosmos-2251-debris", "lat": 16.47516096135817, "lon": 130.2952253008721, "alt_km": 690.3886746830558, "timestamp": "2025-12-21T16:47:55.134195+00:00", "meta": {"OBJECT_NAME": "COSMOS 2251 DEB", "OBJECT_ID": "1993-036ABJ", "EPOCH": "2025-12-20T09:50:49.162272", "MEAN_MOTION": 14.64072467, "ECCENTRICITY": 0.00155371, "INCLINATION": 74.018, "RA_OF_ASC_NODE": 127.9117, "ARG_OF_PERICENTER": 222.8872, "MEAN_ANOMALY": 199.7592, "EPHEMERIS_TYPE": 0, "CLASSIFICATION_TYPE": "U", "NORAD_CAT_ID": 34819, "ELEMENT_SET_NO": 999, "REV_AT_EPOCH": 88341, "BSTAR": 0.001010903, "MEAN_MOTION_DOT": 5.289e-05, "MEAN_MOTION_DDOT": 0}, "tle": {"line1": "1 34819U 93036ABJ 25354.41029123  .00005289  00000+0  10109-2 0  9993", "line2": "2 34819  74.0180 127.9117 0015537 222.8872 199.7592 14.64072467883414"}}, "geometry": {"type": "Point", "coordinates": [130.2952253008721, 16.47516096135817]}}]}